[{"OBJECT_NAME":"FLOCK 4BE-35","OBJECT_ID":"2024-149CU","EPOCH":"2026-03-02T20:00:51.170976","MEAN_MOTION":15.42162443,"ECCENTRICITY":0.000439,"INCLINATION":97.3807,"RA_OF_ASC_NODE":144.9905,"ARG_OF_PERICENTER":280.8638,"MEAN_ANOMALY":79.2115,"EPHEMERIS_TYPE":0,"CLASSIFICATION_TYPE":"U","NORAD_CAT_ID":60558,"ELEMENT_SET_NO":999,"REV_AT_EPOCH":8594,"BSTAR":0.0022332277,"MEAN_MOTION_DOT":0.0009672,"MEAN_MOTION_DDOT":0},{"OBJECT_NAME":"FLOCK 4BE-5","OBJECT_ID":"2024-149CV","EPOCH":"2026-03-02T18:14:43.095264","MEAN_MOTION":15.36666858,"ECCENTRICITY":0.00024442,"INCLINATION":97.3899,"RA_OF_ASC_NODE":144.9897,"ARG_OF_PERICENTER":326.0453,"MEAN_ANOMALY":34.0634,"EPHEMERIS_TYPE":0,"CLASSIFICATION_TYPE":"U","NORAD_CAT_ID":60559,"ELEMENT_SET_NO":999,"REV_AT_EPOCH":8591,"BSTAR":0.00066517072,"MEAN_MOTION_DOT":0.00023784,"MEAN_MOTION_DDOT":0},{"OBJECT_NAME":"FLOCK 4BE-12","OBJECT_ID":"2024-149CW","EPOCH":"2026-03-02T20:51:07.747488","MEAN_MOTION":15.44997626,"ECCENTRICITY":0.00056229,"INCLINATION":97.3774,"RA_OF_ASC_NODE":145.7249,"ARG_OF_PERICENTER":284.3324,"MEAN_ANOMALY":75.73,"EPHEMERIS_TYPE":0,"CLASSIFICATION_TYPE":"U","NORAD_CAT_ID":60560,"ELEMENT_SET_NO":999,"REV_AT_EPOCH":8601,"BSTAR":0.0022920081,"MEAN_MOTION_DOT":0.00109388,"MEAN_MOTION_DDOT":0},{"OBJECT_NAME":"FLOCK 4BE-3","OBJECT_ID":"2024-149CX","EPOCH":"2026-03-02T18:26:17.542176","MEAN_MOTION":15.37881988,"ECCENTRICITY":0.00031566,"INCLINATION":97.3761,"RA_OF_ASC_NODE":144.922,"ARG_OF_PERICENTER":312.2533,"MEAN_ANOMALY":47.8444,"EPHEMERIS_TYPE":0,"CLASSIFICATION_TYPE":"U","NORAD_CAT_ID":60561,"ELEMENT_SET_NO":999,"REV_AT_EPOCH":8596,"BSTAR":0.00056275898,"MEAN_MOTION_DOT":0.00020908,"MEAN_MOTION_DDOT":0},{"OBJECT_NAME":"FLOCK 4BE-19","OBJECT_ID":"2024-149CZ","EPOCH":"2026-03-02T18:49:45.530400","MEAN_MOTION":15.39978926,"ECCENTRICITY":0.00032067,"INCLINATION":97.3798,"RA_OF_ASC_NODE":146.0167,"ARG_OF_PERICENTER":318.4974,"MEAN_ANOMALY":41.6028,"EPHEMERIS_TYPE":0,"CLASSIFICATION_TYPE":"U","NORAD_CAT_ID":60563,"ELEMENT_SET_NO":999,"REV_AT_EPOCH":8602,"BSTAR":0.00060875465,"MEAN_MOTION_DOT":0.00024237,"MEAN_MOTION_DDOT":0},{"OBJECT_NAME":"PELICAN-2","OBJECT_ID":"2025-009Y","EPOCH":"2026-03-02T18:35:44.296800","MEAN_MOTION":15.40335051,"ECCENTRICITY":0.00072769,"INCLINATION":97.4033,"RA_OF_ASC_NODE":151.9962,"ARG_OF_PERICENTER":218.677,"MEAN_ANOMALY":141.3956,"EPHEMERIS_TYPE":0,"CLASSIFICATION_TYPE":"U","NORAD_CAT_ID":62631,"ELEMENT_SET_NO":999,"REV_AT_EPOCH":6317,"BSTAR":0.0032134708,"MEAN_MOTION_DOT":0.00131712,"MEAN_MOTION_DDOT":0},{"OBJECT_NAME":"PELICAN-3","OBJECT_ID":"2025-188A","EPOCH":"2026-03-02T15:51:09.282240","MEAN_MOTION":15.40637623,"ECCENTRICITY":0.00031693,"INCLINATION":97.2276,"RA_OF_ASC_NODE":139.2926,"ARG_OF_PERICENTER":183.0757,"MEAN_ANOMALY":177.0471,"EPHEMERIS_TYPE":0,"CLASSIFICATION_TYPE":"U","NORAD_CAT_ID":65315,"ELEMENT_SET_NO":999,"REV_AT_EPOCH":2891,"BSTAR":0.00010374744,"MEAN_MOTION_DOT":4.143e-5,"MEAN_MOTION_DDOT":0},{"OBJECT_NAME":"PELICAN-4","OBJECT_ID":"2025-188B","EPOCH":"2026-03-02T17:47:08.996640","MEAN_MOTION":15.40653855,"ECCENTRICITY":0.0005441,"INCLINATION":97.2274,"RA_OF_ASC_NODE":139.4492,"ARG_OF_PERICENTER":110.8219,"MEAN_ANOMALY":249.3611,"EPHEMERIS_TYPE":0,"CLASSIFICATION_TYPE":"U","NORAD_CAT_ID":65316,"ELEMENT_SET_NO":999,"REV_AT_EPOCH":2892,"BSTAR":0.00028427633,"MEAN_MOTION_DOT":0.00011515,"MEAN_MOTION_DDOT":0}]
